STARLINK-2022           
1 47643U 21012Z   24105.76376168  .00000665  00000+0  63498-4 0  9996
2 47643  53.0542 286.7729 0001424  90.5909 269.5243 15.06402157175677
